ONEWEB-0249             
1 48967U 21060A   25143.87165966 -.00000037  00000+0 -12948-3 0  9994
2 48967  87.9021 306.3795 0001888  97.8209 262.3136 13.16593140188380
ONEWEB-0250             
1 48968U 21060B   25143.81436930  .00000044  00000+0  69566-4 0  9996
2 48968  87.9023 305.4218 0002641 112.6923 247.4493 13.25806405188628
ONEWEB-0252             
1 48970U 21060D   25143.82735092  .00000131  00000+0  31025-3 0  9996
2 48970  87.9022 306.3815 0001543  85.7174 274.4134 13.16593972188423
ONEWEB-0253             
1 48971U 21060E   25143.81626784  .00000098  00000+0  22264-3 0  9990
2 48971  87.9021 306.3888 0001631 101.8957 258.2357 13.16595106188350
ONEWEB-0254             
1 48972U 21060F   25143.82576598  .00000015  00000+0  49845-5 0  9994
2 48972  87.9022 306.3706 0001817 110.4691 249.6635 13.16593731188353
ONEWEB-0255             
1 48973U 21060G   25143.71177490  .00000000  00000+0 -33738-4 0  9999
2 48973  87.9021 306.4268 0001767 105.0141 255.1186 13.16592840188411
ONEWEB-0256             
1 48974U 21060H   25143.81389583  .00000017  00000+0  12078-4 0  9990
2 48974  87.9016 306.4186 0001699  90.9549 269.1777 13.16594902188392
ONEWEB-0257             
1 48975U 21060J   25143.46636382  .00000032  00000+0  49116-4 0  9994
2 48975  87.9022 306.4507 0001601  99.5490 260.5822 13.16594699188300
